IRIDIUM 33 DEB          
1 38019U 97051YF  17345.01737327  .00002793  00000-0  76600-3 0  9996
2 38019  86.3995 243.5605 0083984 205.9096 153.7891 14.44702528237802
